IRIDIUM 116             
1 43072U 17083C   25350.21216749 -.00000070  00000+0 -32023-4 0  9994
2 43072  86.3957  38.4803 0002419  96.3273 263.8198 14.34216425417942
IRIDIUM 130             
1 43073U 17083D   25350.18045681  .00000238  00000+0  78011-4 0  9997
2 43073  86.3974  38.7515 0002468 100.4102 259.7372 14.34219245417881
IRIDIUM 151             
1 43074U 17083E   25350.15508404 -.00000017  00000+0 -13217-4 0  9996
2 43074  86.3957  38.5580 0002142  94.6047 265.5393 14.34217316417902
IRIDIUM 134             
1 43075U 17083F   25350.19313899  .00000260  00000+0  85862-4 0  9996
2 43075  86.3969  38.5478 0002253  99.1622 260.9829 14.34214361417870
IRIDIUM 137             
1 43076U 17083G   25350.20582568  .00000014  00000+0 -21364-5 0  9996
2 43076  86.3965  38.6314 0002533  88.0175 272.1311 14.34217317417941
IRIDIUM 141             
1 43077U 17083H   25350.19948210  .00000025  00000+0  19480-5 0  9992
2 43077  86.3967  38.4755 0002045  97.1426 263.0003 14.34217030417948
IRIDIUM 153             
1 43078U 17083J   25350.29119671 -.00000065  00000+0 -30136-4 0  9991
2 43078  86.3964   6.9273 0001745  97.3614 262.7780 14.34217518419062
IRIDIUM 131             
1 43079U 17083K   25350.18679678 -.00000016  00000+0 -12840-4 0  9996
2 43079  86.3965  38.6542 0002032  93.8704 266.2724 14.34217370417876
